{
  "type": "FeatureCollection",
  "features": [
    {
      "type": "Feature",
      "properties": {
        "norad_id": 28051,
        "name": "IRS-P6 (RESOURCESAT-1)",
        "group": "resource",
        "lat": -81.77618565054719,
        "lon": 122.50010102302582,
        "alt_km": 793.8318591164671,
        "timestamp": "2025-12-19T08:58:48.993911+00:00",
        "meta_object_name": "IRS-P6 (RESOURCESAT-1)",
        "meta_object_id": "2003-046A",
        "meta_epoch": "2025-12-18T23:54:27.276192",
        "meta_mean_motion": 14.36077261,
        "meta_eccentricity": 0.00645036,
        "meta_inclination": 98.2174,
        "meta_ra_of_asc_node": 33.1137,
        "meta_arg_of_pericenter": 161.9517,
        "meta_mean_anomaly": 314.2583,
        "meta_ephemeris_type": 0,
        "meta_classification_type": "U",
        "meta_norad_cat_id": 28051,
        "meta_element_set_no": 999,
        "meta_rev_at_epoch": 15466,
        "meta_bstar": 4.5749196e-05,
        "meta_mean_motion_dot": 9.6e-07,
        "meta_mean_motion_ddot": 0,
        "tle_line1": "1 28051U 03046A   25352.99614903  .00000096  00000+0  45749-4 0  9994",
        "tle_line2": "2 28051  98.2174  33.1137 0064503 161.9517 314.2583 14.36077261154660"
      },
      "geometry": {
        "type": "Point",
        "coordinates": [
          122.50010102302582,
          -81.77618565054719
        ]
      }
    },
    {
      "type": "Feature",
      "properties": {
        "norad_id": 28220,
        "name": "SHIYAN-1 (SY-1)",
        "group": "resource",
        "lat": -0.8675115103154404,
        "lon": -124.81541681214365,
        "alt_km": 485.783307995991,
        "timestamp": "2025-12-19T08:58:48.993923+00:00",
        "meta_object_name": "SHIYAN-1 (SY-1)",
        "meta_object_id": "2004-012A",
        "meta_epoch": "2025-12-18T18:02:56.639616",
        "meta_mean_motion": 15.28295514,
        "meta_eccentricity": 0.00052917,
        "meta_inclination": 97.8933,
        "meta_ra_of_asc_node": 54.646,
        "meta_arg_of_pericenter": 301.1379,
        "meta_mean_anomaly": 58.934,
        "meta_ephemeris_type": 0,
        "meta_classification_type": "U",
        "meta_norad_cat_id": 28220,
        "meta_element_set_no": 999,
        "meta_rev_at_epoch": 18348,
        "meta_bstar": 0.00037272421,
        "meta_mean_motion_dot": 0.00010199,
        "meta_mean_motion_ddot": 0,
        "tle_line1": "1 28220U 04012A   25352.75204444  .00010199  00000+0  37272-3 0  9991",
        "tle_line2": "2 28220  97.8933  54.6460 0005291 301.1379  58.9340 15.28295514183486"
      },
      "geometry": {
        "type": "Point",
        "coordinates": [
          -124.81541681214365,
          -0.8675115103154404
        ]
      }
    },
    {
      "type": "Feature",
      "properties": {
        "norad_id": 28376,
        "name": "AURA",
        "group": "resource",
        "lat": 48.953235441229694,
        "lon": -66.04262855542068,
        "alt_km": 684.9400900226274,
        "timestamp": "2025-12-19T08:58:48.993934+00:00",
        "meta_object_name": "AURA",
        "meta_object_id": "2004-026A",
        "meta_epoch": "2025-12-18T21:14:51.690336",
        "meta_mean_motion": 14.60960484,
        "meta_eccentricity": 0.00013366,
        "meta_inclination": 98.3192,
        "meta_ra_of_asc_node": 303.1406,
        "meta_arg_of_pericenter": 93.1458,
        "meta_mean_anomaly": 266.9895,
        "meta_ephemeris_type": 0,
        "meta_classification_type": "U",
        "meta_norad_cat_id": 28376,
        "meta_element_set_no": 999,
        "meta_rev_at_epoch": 13988,
        "meta_bstar": 0.00017544657,
        "meta_mean_motion_dot": 8.12e-06,
        "meta_mean_motion_ddot": 0,
        "tle_line1": "1 28376U 04026A   25352.88532049  .00000812  00000+0  17545-3 0  9999",
        "tle_line2": "2 28376  98.3192 303.1406 0001336  93.1458 266.9895 14.60960484139886"
      },
      "geometry": {
        "type": "Point",
        "coordinates": [
          -66.04262855542068,
          48.953235441229694
        ]
      }
    },
    {
      "type": "Feature",
      "properties": {
        "norad_id": 28649,
        "name": "IRS-P5 (CARTOSAT-1)",
        "group": "resource",
        "lat": -63.97057891260791,
        "lon": -176.2621036834228,
        "alt_km": 604.407082915428,
        "timestamp": "2025-12-19T08:58:48.993945+00:00",
        "meta_object_name": "IRS-P5 (CARTOSAT-1)",
        "meta_object_id": "2005-017A",
        "meta_epoch": "2025-12-18T15:46:18.001056",
        "meta_mean_motion": 14.9042411,
        "meta_eccentricity": 8.721e-05,
        "meta_inclination": 97.5487,
        "meta_ra_of_asc_node": 18.8081,
        "meta_arg_of_pericenter": 47.8767,
        "meta_mean_anomaly": 312.2525,
        "meta_ephemeris_type": 0,
        "meta_classification_type": "U",
        "meta_norad_cat_id": 28649,
        "meta_element_set_no": 999,
        "meta_rev_at_epoch": 11692,
        "meta_bstar": 0.00012153421,
        "meta_mean_motion_dot": 1.132e-05,
        "meta_mean_motion_ddot": 0,
        "tle_line1": "1 28649U 05017A   25352.65715279  .00001132  00000+0  12153-3 0  9992",
        "tle_line2": "2 28649  97.5487  18.8081 0000872  47.8767 312.2525 14.90424110116928"
      },
      "geometry": {
        "type": "Point",
        "coordinates": [
          -176.2621036834228,
          -63.97057891260791
        ]
      }
    },
    {
      "type": "Feature",
      "properties": {
        "norad_id": 28893,
        "name": "SINAH 1",
        "group": "resource",
        "lat": -31.92696013925723,
        "lon": 127.14288559485122,
        "alt_km": 695.957008180234,
        "timestamp": "2025-12-19T08:58:48.993955+00:00",
        "meta_object_name": "SINAH 1",
        "meta_object_id": "2005-043D",
        "meta_epoch": "2025-12-18T21:38:43.252800",
        "meta_mean_motion": 14.63968938,
        "meta_eccentricity": 0.00155957,
        "meta_inclination": 98.2607,
        "meta_ra_of_asc_node": 121.4757,
        "meta_arg_of_pericenter": 118.9194,
        "meta_mean_anomaly": 241.3575,
        "meta_ephemeris_type": 0,
        "meta_classification_type": "U",
        "meta_norad_cat_id": 28893,
        "meta_element_set_no": 999,
        "meta_rev_at_epoch": 7414,
        "meta_bstar": 7.47203e-05,
        "meta_mean_motion_dot": 3.43e-06,
        "meta_mean_motion_ddot": 0,
        "tle_line1": "1 28893U 05043D   25352.90188950  .00000343  00000+0  74720-4 0  9992",
        "tle_line2": "2 28893  98.2607 121.4757 0015595 118.9194 241.3575 14.63968938 74149"
      },
      "geometry": {
        "type": "Point",
        "coordinates": [
          127.14288559485122,
          -31.92696013925723
        ]
      }
    },
    {
      "type": "Feature",
      "properties": {
        "norad_id": 29079,
        "name": "EROS B",
        "group": "resource",
        "lat": -30.239267933540685,
        "lon": 114.58733571360112,
        "alt_km": 361.9235985415553,
        "timestamp": "2025-12-19T08:58:48.993966+00:00",
        "meta_object_name": "EROS B",
        "meta_object_id": "2006-014A",
        "meta_epoch": "2025-12-18T22:24:13.969728",
        "meta_mean_motion": 15.70195533,
        "meta_eccentricity": 0.00033635,
        "meta_inclination": 97.3466,
        "meta_ra_of_asc_node": 109.811,
        "meta_arg_of_pericenter": 311.608,
        "meta_mean_anomaly": 48.4893,
        "meta_ephemeris_type": 0,
        "meta_classification_type": "U",
        "meta_norad_cat_id": 29079,
        "meta_element_set_no": 999,
        "meta_rev_at_epoch": 9177,
        "meta_bstar": 0.0011911967,
        "meta_mean_motion_dot": 0.00146275,
        "meta_mean_motion_ddot": 0,
        "tle_line1": "1 29079U 06014A   25352.93349502  .00146275  00000+0  11912-2 0  9990",
        "tle_line2": "2 29079  97.3466 109.8110 0003363 311.6080  48.4893 15.70195533 91777"
      },
      "geometry": {
        "type": "Point",
        "coordinates": [
          114.58733571360112,
          -30.239267933540685
        ]
      }
    },
    {
      "type": "Feature",
      "properties": {
        "norad_id": 29228,
        "name": "RESURS-DK 1",
        "group": "resource",
        "lat": -24.95308489827396,
        "lon": 74.90082592204122,
        "alt_km": 533.6990100093572,
        "timestamp": "2025-12-19T08:58:48.993976+00:00",
        "meta_object_name": "RESURS-DK 1",
        "meta_object_id": "2006-021A",
        "meta_epoch": "2025-12-18T15:38:05.875296",
        "meta_mean_motion": 15.12193236,
        "meta_eccentricity": 0.0006884,
        "meta_inclination": 69.9338,
        "meta_ra_of_asc_node": 86.5605,
        "meta_arg_of_pericenter": 254.5298,
        "meta_mean_anomaly": 105.5108,
        "meta_ephemeris_type": 0,
        "meta_classification_type": "U",
        "meta_norad_cat_id": 29228,
        "meta_element_set_no": 999,
        "meta_rev_at_epoch": 7527,
        "meta_bstar": 0.00012834748,
        "meta_mean_motion_dot": 2.114e-05,
        "meta_mean_motion_ddot": 0,
        "tle_line1": "1 29228U 06021A   25352.65145689  .00002114  00000+0  12835-3 0  9992",
        "tle_line2": "2 29228  69.9338  86.5605 0006884 254.5298 105.5108 15.12193236 75278"
      },
      "geometry": {
        "type": "Point",
        "coordinates": [
          74.90082592204122,
          -24.95308489827396
        ]
      }
    }
  ]
}